[{"OBJECT_NAME":"IRIDIUM 102","OBJECT_ID":"2017-003D","EPOCH":"2026-03-09T16:58:10.285536","MEAN_MOTION":14.3421763,"ECCENTRICITY":0.00022591,"INCLINATION":86.3971,"RA_OF_ASC_NODE":130.0382,"ARG_OF_PERICENTER":95.9369,"MEAN_ANOMALY":264.2084,"EPHEMERIS_TYPE":0,"CLASSIFICATION_TYPE":"U","NORAD_CAT_ID":41920,"ELEMENT_SET_NO":999,"REV_AT_EPOCH":47902,"BSTAR":3.634738e-6,"MEAN_MOTION_DOT":3.0e-7,"MEAN_MOTION_DDOT":0},{"OBJECT_NAME":"CZ-4 DEB","OBJECT_ID":"1990-081DB","EPOCH":"2026-03-05T22:36:00.561024","MEAN_MOTION":14.34624964,"ECCENTRICITY":0.00148237,"INCLINATION":98.5419,"RA_OF_ASC_NODE":65.486,"ARG_OF_PERICENTER":198.3015,"MEAN_ANOMALY":161.7638,"EPHEMERIS_TYPE":0,"CLASSIFICATION_TYPE":"U","NORAD_CAT_ID":37615,"ELEMENT_SET_NO":999,"REV_AT_EPOCH":60990,"BSTAR":0.0005969492,"MEAN_MOTION_DOT":1.646e-5,"MEAN_MOTION_DDOT":0}]
